NORAD_CAT_ID,OBJECT_NAME,OBJECT_TYPE,EPOCH,MEAN_MOTION,ECCENTRICITY,INCLINATION,RA_OF_ASC_NODE,ARG_OF_PERICENTER,MEAN_ANOMALY,BSTAR,MEAN_MOTION_DOT,MEAN_MOTION_DDOT,TLE_LINE0,TLE_LINE1,TLE_LINE2,SEMIMAJOR_AXIS,PERIOD,APOGEE,PERIGEE,DECAYED
53910.0,STARLINK-5056,PAYLOAD,2024-03-19 20:33:37,15.08853174,0.0001189,53.2172,305.6367,94.3536,265.7592,6.1824e-05,6.97e-06,0.0,0 STARLINK-5056,1 53910U 22119AA  24079.85668533  .00000697  00000-0  61824-4 0  9996,2 53910  53.2172 305.6367 0001189  94.3536 265.7592 15.08853174 82737,6917.84,95.437,540.528,538.883,0.0
53910.0,STARLINK-5056,PAYLOAD,2024-03-20 01:19:46,15.08858069,0.0001196,53.2174,304.7431,92.9922,267.1207,9.7423e-05,1.264e-05,0.0,0 STARLINK-5056,1 53910U 22119AA  24080.05539960  .00001264  00000-0  97423-4 0  9996,2 53910  53.2174 304.7431 0001196  92.9922 267.1207 15.08858069 83189,6917.825,95.436,540.518,538.863,0.0
53910.0,STARLINK-5056,PAYLOAD,2024-03-20 20:24:25,15.08823281,0.0003303,53.2165,301.1648,158.1583,201.955,0.00012564,1.711e-05,0.0,0 STARLINK-5056,1 53910U 22119AA  24080.85029818  .00001711  00000-0  12564-3 0  9999,2 53910  53.2165 301.1648 0003303 158.1583 201.9550 15.08823281 82881,6917.931,95.439,542.081,537.511,0.0
53910.0,STARLINK-5056,PAYLOAD,2024-03-20 21:59:49,15.08829935,0.0001328,53.2173,300.879,68.6386,291.4747,-4.1421e-05,-9.47e-06,0.0,0 STARLINK-5056,1 53910U 22119AA  24080.91654745 -.00000947  00000-0 -41421-4 0  9996,2 53910  53.2173 300.8790 0001328  68.6386 291.4747 15.08829935 83318,6917.911,95.438,540.695,538.857,0.0
53910.0,STARLINK-5056,PAYLOAD,2024-03-21 07:32:08,15.08837085,0.00013,53.2176,299.0948,94.0045,266.1096,1.3301e-05,-7.6e-07,0.0,0 STARLINK-5056,1 53910U 22119AA  24081.31398196 -.00000076  00000-0  13301-4 0  9994,2 53910  53.2176 299.0948 0001300  94.0045 266.1096 15.08837085 82950,6917.889,95.438,540.654,538.855,0.0
53910.0,STARLINK-5056,PAYLOAD,2024-03-21 20:15:12,15.08846415,0.0001171,53.2169,296.7142,102.1254,257.9869,6.3726e-05,7.27e-06,0.0,0 STARLINK-5056,1 53910U 22119AA  24081.84389516  .00000727  00000-0  63726-4 0  9996,2 53910  53.2169 296.7142 0001171 102.1254 257.9869 15.08846415 83034,6917.861,95.437,540.536,538.916,0.0
53910.0,STARLINK-5056,PAYLOAD,2024-03-21 21:50:35,15.08850226,0.0001255,53.2178,296.4171,89.9065,270.2071,7.1298e-05,8.47e-06,0.0,0 STARLINK-5056,1 53910U 22119AA  24081.91013329  .00000847  00000-0  71298-4 0  9996,2 53910  53.2178 296.4171 0001255  89.9065 270.2071 15.08850226 83463,6917.849,95.437,540.582,538.846,0.0
53910.0,STARLINK-5056,PAYLOAD,2024-03-21 23:25:58,15.08846139,0.000119,53.2169,296.1186,104.0082,256.1042,0.00015797,2.228e-05,0.0,0 STARLINK-5056,1 53910U 22119AA  24081.97637456  .00002228  00000-0  15797-3 0  9991,2 53910  53.2169 296.1186 0001190 104.0082 256.1042 15.08846139 83472,6917.862,95.437,540.55,538.903,0.0
53910.0,STARLINK-5056,PAYLOAD,2024-03-22 21:41:22,15.08852089,0.0001304,53.2166,291.9564,89.8355,270.2787,0.00031942,4.801e-05,0.0,0 STARLINK-5056,1 53910U 22119AA  24082.90373234  .00004801  00000-0  31942-3 0  9995,2 53910  53.2166 291.9564 0001304  89.8355 270.2787 15.08852089 83612,6917.843,95.437,540.611,538.806,0.0
53910.0,STARLINK-5056,PAYLOAD,2024-03-23 19:56:47,15.08839346,0.0001411,53.2163,287.7965,82.4496,277.6656,2.1824e-05,5.9e-07,0.0,0 STARLINK-5056,1 53910U 22119AA  24083.83110060  .00000059  00000-0  21824-4 0  9994,2 53910  53.2163 287.7965 0001411  82.4496 277.6656 15.08839346 83337,6917.882,95.438,540.724,538.771,0.0
53910.0,STARLINK-5056,PAYLOAD,2024-03-24 07:04:29,15.08841079,0.0001371,53.2165,285.7143,83.7881,276.3267,0.00011871,1.602e-05,0.0,0 STARLINK-5056,1 53910U 22119AA  24084.29478108  .00001602  00000-0  11871-3 0  9990,2 53910  53.2165 285.7143 0001371  83.7881 276.3267 15.08841079 83826,6917.877,95.437,540.691,538.794,0.0
53910.0,STARLINK-5056,PAYLOAD,2024-03-24 19:47:33,15.08862056,0.000137,53.2163,283.335,84.3133,275.8015,0.00079696,0.00012426,0.0,0 STARLINK-5056,1 53910U 22119AA  24084.82469829  .00012426  00000-0  79696-3 0  9994,2 53910  53.2163 283.3350 0001370  84.3133 275.8015 15.08862056 83489,6917.813,95.436,540.626,538.73,0.0
53910.0,STARLINK-5056,PAYLOAD,2024-03-25 19:38:20,15.08857486,0.0001328,53.2163,278.8742,84.7303,275.3841,0.00054483,8.398e-05,0.0,0 STARLINK-5056,1 53910U 22119AA  24085.81829546  .00008398  00000-0  54483-3 0  9990,2 53910  53.2163 278.8742 0001328  84.7303 275.3841 15.08857486 83639,6917.827,95.436,540.611,538.773,0.0
53910.0,STARLINK-5056,PAYLOAD,2024-03-26 13:07:36,15.08823152,0.0001133,53.2169,275.6022,91.1722,268.94,-0.00046253,-7.638e-05,0.0,0 STARLINK-5056,1 53910U 22119AA  24086.54694805 -.00007638  00000-0 -46253-3 0  9993,2 53910  53.2169 275.6022 0001133  91.1722 268.9400 15.08823152 83746,6917.932,95.439,540.581,539.013,0.0
53910.0,STARLINK-5056,PAYLOAD,2024-03-26 19:29:08,15.08829705,0.0001291,53.2163,274.4154,93.7978,266.3161,0.00028444,4.241e-05,0.0,0 STARLINK-5056,1 53910U 22119AA  24086.81190757  .00004241  00000-0  28444-3 0  9997,2 53910  53.2163 274.4154 0001291  93.7978 266.3161 15.08829705 83789,6917.912,95.438,540.67,538.884,0.0
53910.0,STARLINK-5056,PAYLOAD,2024-03-27 11:23:00,15.08839327,0.0001333,53.2163,271.4422,100.7238,259.3904,0.0008606,0.00013435,0.0,0 STARLINK-5056,1 53910U 22119AA  24087.47431273  .00013435  00000-0  86060-3 0  9994,2 53910  53.2163 271.4422 0001333 100.7238 259.3904 15.08839327 84306,6917.882,95.438,540.67,538.825,0.0
53910.0,STARLINK-5056,PAYLOAD,2024-03-27 19:19:56,15.0884752,0.0001198,53.2161,269.955,99.5999,260.5128,0.00081063,0.00012639,0.0,0 STARLINK-5056,1 53910U 22119AA  24087.80551150  .00012639  00000-0  81063-3 0  9991,2 53910  53.2161 269.9550 0001198  99.5999 260.5128 15.08847520 84357,6917.857,95.437,540.551,538.894,0.0
53910.0,STARLINK-5056,PAYLOAD,2024-03-28 04:52:14,15.08856206,8.83e-05,53.2142,268.1677,78.2487,281.8604,0.0007117,0.00011062,0.0,0 STARLINK-5056,1 53910U 22119AA  24088.20294776  .00011062  00000-0  71170-3 0  9991,2 53910  53.2142 268.1677 0000883  78.2487 281.8604 15.08856206 83998,6917.831,95.437,540.307,539.085,0.0
53910.0,STARLINK-5056,PAYLOAD,2024-03-28 20:46:06,15.08848011,0.0001732,53.2166,265.1958,88.8007,271.3184,0.00035384,5.349e-05,0.0,0 STARLINK-5056,1 53910U 22119AA  24088.86534919  .00005349  00000-0  35384-3 0  9997,2 53910  53.2166 265.1958 0001732  88.8007 271.3184 15.08848011 84513,6917.856,95.437,540.919,538.523,0.0
53910.0,STARLINK-5056,PAYLOAD,2024-03-29 20:36:52,15.08857667,0.0001615,53.2153,260.7336,79.1649,280.9525,0.00043716,6.68e-05,0.0,0 STARLINK-5056,1 53910U 22119AA  24089.85894160  .00006680  00000-0  43716-3 0  9991,2 53910  53.2153 260.7336 0001615  79.1649 280.9525 15.08857667 84663,6917.826,95.436,540.809,538.574,0.0
53910.0,STARLINK-5056,PAYLOAD,2024-03-30 04:33:48,15.08844473,0.0001096,53.2171,259.2462,75.1681,284.9432,-0.00016519,-2.916e-05,0.0,0 STARLINK-5056,1 53910U 22119AA  24090.19013890 -.00002916  00000-0 -16519-3 0  9994,2 53910  53.2171 259.2462 0001096  75.1681 284.9432 15.08844473 84292,6917.867,95.437,540.49,538.974,0.0
53910.0,STARLINK-5056,PAYLOAD,2024-03-30 10:55:20,15.08840078,0.0001871,53.2135,258.0606,74.6421,285.4778,0.00012017,1.625e-05,0.0,0 STARLINK-5056,1 53910U 22119AA  24090.45510406  .00001625  00000-0  12017-3 0  9991,2 53910  53.2135 258.0606 0001871  74.6421 285.4778 15.08840078 84753,6917.88,95.438,541.039,538.451,0.0
53910.0,STARLINK-5056,PAYLOAD,2024-03-30 17:16:53,15.08838409,0.0001966,53.2132,256.8696,77.3553,282.7659,0.00021329,3.108e-05,0.0,0 STARLINK-5056,1 53910U 22119AA  24090.72006585  .00003108  00000-0  21329-3 0  9993,2 53910  53.2132 256.8696 0001966  77.3553 282.7659 15.08838409 84377,6917.885,95.438,541.11,538.39,0.0
53910.0,STARLINK-5056,PAYLOAD,2024-03-31 10:46:08,15.08843731,0.0001519,53.2148,253.5991,74.3309,285.7851,0.00039933,6.074e-05,0.0,0 STARLINK-5056,1 53910U 22119AA  24091.44870867  .00006074  00000-0  39933-3 0  9990,2 53910  53.2148 253.5991 0001519  74.3309 285.7851 15.08843731 84906,6917.869,95.437,540.785,538.683,0.0
53910.0,STARLINK-5056,PAYLOAD,2024-03-31 17:07:40,15.08845516,0.0001539,53.2166,252.4118,68.5986,291.517,0.00037457,5.679e-05,0.0,0 STARLINK-5056,1 53910U 22119AA  24091.71366768  .00005679  00000-0  37457-3 0  9999,2 53910  53.2166 252.4118 0001539  68.5986 291.5170 15.08845516 84949,6917.864,95.437,540.793,538.664,0.0
53910.0,STARLINK-5056,PAYLOAD,2024-04-01 13:47:42,15.0883665,0.000149,53.2155,248.5459,67.0035,293.1114,0.00014598,2.036e-05,0.0,0 STARLINK-5056,1 53910U 22119AA  24092.57479324  .00002036  00000-0  14598-3 0  9992,2 53910  53.2155 248.5459 0001490  67.0035 293.1114 15.08836650 85076,6917.891,95.438,540.786,538.725,0.0
53910.0,STARLINK-5056,PAYLOAD,2024-04-01 20:09:14,15.08838086,0.0001264,53.2157,247.3525,86.8818,273.2318,0.00012305,1.671e-05,0.0,0 STARLINK-5056,1 53910U 22119AA  24092.83975206  .00001671  00000-0  12305-3 0  9999,2 53910  53.2157 247.3525 0001264  86.8818 273.2318 15.08838086 84693,6917.886,95.438,540.626,538.877,0.0
53910.0,STARLINK-5056,PAYLOAD,2024-04-02 13:38:29,15.088361,0.0001414,53.2166,244.0828,85.9304,274.1849,-2.8807e-06,-3.34e-06,0.0,0 STARLINK-5056,1 53910U 22119AA  24093.56839540 -.00000334  00000-0 -28807-5 0  9993,2 53910  53.2166 244.0828 0001414  85.9304 274.1849 15.08836100 85224,6917.892,95.438,540.735,538.779,0.0
53910.0,STARLINK-5056,PAYLOAD,2024-04-02 20:00:01,15.08841811,0.0001448,53.2169,242.8939,90.8319,269.2839,4.6181e-05,4.47e-06,0.0,0 STARLINK-5056,1 53910U 22119AA  24093.83335275  .00000447  00000-0  46181-4 0  9996,2 53910  53.2169 242.8939 0001448  90.8319 269.2839 15.08841811 85267,6917.875,95.437,540.742,538.738,0.0
53910.0,STARLINK-5056,PAYLOAD,2024-04-03 02:21:34,15.08842118,0.0001322,53.217,241.7044,87.7845,272.3298,7.4611e-05,9e-06,0.0,0 STARLINK-5056,1 53910U 22119AA  24094.09831264  .00000900  00000-0  74611-4 0  9997,2 53910  53.2170 241.7044 0001322  87.7845 272.3298 15.08842118 84886,6917.874,95.437,540.653,538.824,0.0
